IRIDIUM 155             
1 43573U 18061E   20286.31164794  .00000066  00000-0  16656-4 0  9991
2 43573  86.4033 203.3748 0001672  72.5753 287.5625 14.34219026116106
IRIDIUM 154             
1 43574U 18061F   20286.50193378  .00000065  00000-0  16074-4 0  9996
2 43574  86.4037 203.3304 0002441  82.6420 277.5053 14.34218529116186
IRIDIUM 163             
1 43575U 18061G   20286.48291292  .00000071  00000-0  18379-4 0  9995
2 43575  86.4035 203.3167 0002252  98.6006 261.5445 14.34217616116150
IRIDIUM 156             
1 43576U 18061H   20286.38775969  .00000063  00000-0  15301-4 0  9996
2 43576  86.4035 203.3612 0001831  89.6686 270.4720 14.34217033116127
IRIDIUM 164             
1 43577U 18061J   20286.50827562  .00000073  00000-0  19058-4 0  9992
2 43577  86.4036 203.3198 0002350  86.0408 274.1057 14.34219350116193
IRIDIUM 159             
1 43578U 18061K   20286.47656682  .00000068  00000-0  17096-4 0  9996
2 43578  86.4034 203.3134 0002332  83.5835 276.5626 14.34218363116155
IRIDIUM 180             
1 43922U 19002A   20286.12721838  .00000080  00000-0  21452-4 0  9998
2 43922  86.3964 140.3901 0003145  93.3243 266.8313 14.34218706 91750
IRIDIUM 176             
1 43923U 19002B   20286.32831571  .00000117  00000-0  14651-4 0  9991
2 43923  86.6101 140.3365 0002482  87.4697 272.6804 14.72251736 94127
IRIDIUM 168             
1 43924U 19002C   20286.12086951  .00000083  00000-0  22627-4 0  9998
2 43924  86.3967 140.4112 0002361  85.6500 274.4965 14.34218731 91698
IRIDIUM 173             
1 43925U 19002D   20286.10818388  .00000083  00000-0  22457-4 0  9995
2 43925  86.3963 140.3898 0002256  87.6025 272.5429 14.34217479 91683
IRIDIUM 169             
1 43926U 19002E   20286.44693774  .00000083  00000-0  20542-4 0  9996
2 43926  86.4281 171.8081 0004606 351.2198   8.8918 14.38611593 92080
IRIDIUM 172             
1 43927U 19002F   20286.38091084  .00000087  00000-0  23945-4 0  9990
2 43927  86.3962 140.2773 0002375  87.9897 272.1571 14.34219303 91724
IRIDIUM 175             
1 43928U 19002G   20286.18619434  .00000157  00000-0  21000-4 0  9992
2 43928  86.6084 140.2648 0001848 106.0449 254.0972 14.72251893 94093
IRIDIUM 171             
1 43929U 19002H   20286.50142058  .00000077  00000-0  20593-4 0  9999
2 43929  86.3973 140.3028 0002348  84.7386 275.4078 14.34218805 91735
IRIDIUM 170             
1 43930U 19002J   20286.13056235  .00000146  00000-0  19270-4 0  9998
2 43930  86.6100 140.4259 0002419  94.6942 265.4552 14.72250463 94104
IRIDIUM 167             
1 43931U 19002K   20286.35554270  .00000085  00000-0  23332-4 0  9991
2 43931  86.3964 140.2921 0002968  90.1856 269.9680 14.34219174 91715
